STARLINK-35809          
1 66373U 25254AB  25335.56962340  .00276640  00000+0  18224-2 0  9999
2 66373  53.1571 330.3085 0001436 103.7531 256.3648 15.74308525  3923
STARLINK-35831          
1 66374U 25254AC  25335.69626777  .00148441  00000+0  99838-3 0  9993
2 66374  53.1570 329.6757 0001690  76.9524 283.1685 15.74228022  3949
STARLINK-35826          
1 66375U 25254AD  25335.69593683  .00302136  00000+0  19874-2 0  9997
2 66375  53.1569 329.6740 0003156  90.1085 270.0297 15.74266270  3940
SHIYAN-32 01            
1 66376U 25255A   25335.80339762  .00020260  00000+0  47189-3 0  9994
2 66376  52.9964 230.0494 0013339   8.3763 351.7461 15.42196322  3660
CZ-11 DEB               
1 66377U 25255B   25335.79278949  .00038640  00000+0  85435-3 0  9999
2 66377  52.9964 229.9824 0013895   5.8586 354.2578 15.43379892  3525
SHIYAN-32 02            
1 66378U 25255C   25335.78824301  .00053916  00000+0  11673-2 0  9993
2 66378  52.9977 229.9564 0012673   7.3781 352.7408 15.43870454  3523
SHIYAN-32 03            
1 66379U 25255D   25335.86287380  .00020569  00000+0  47274-3 0  9998
2 66379  52.9971 229.7092 0015352   9.4603 350.6687 15.42556992  3551
STARLINK-35139          
1 66380U 25257A   25335.83335647 -.02194600  00000+0 -56799-1 0  9991
2 66380  53.1595 316.0475 0001252 110.3393  45.5396 15.41806575  4681
STARLINK-35158          
1 66381U 25257B   25335.83335647 -.02147155  00000+0 -56567-1 0  9998
2 66381  53.1592 316.0438 0001411 109.6717  48.0597 15.41788212  4741
STARLINK-35639          
1 66382U 25257C   25335.83335647 -.02025420  00000+0 -48190-1 0  9992
2 66382  53.1589 316.0102 0001318  85.2304  88.4329 15.44563818  4740
STARLINK-35690          
1 66383U 25257D   25335.83335647 -.02039743  00000+0 -44026-1 0  9990
2 66383  53.1588 315.9872 0001539  89.6422  95.3780 15.47394492  4747
STARLINK-35662          
1 66384U 25257E   25335.83335647 -.02040975  00000+0 -44066-1 0  9994
2 66384  53.1589 315.9844 0001612  82.4326 104.4820 15.47386922  4740
