CCSDS_OMM_VERS = 2.0
CREATION_DATE  = 
ORIGINATOR     = 

OBJECT_NAME    = STARLINK-35809
OBJECT_ID      = 2025-254AB
CENTER_NAME    = EARTH
REF_FRAME      = TEME
TIME_SYSTEM    = UTC
MEAN_ELEMENT_THEORY = SGP/SGP4

EPOCH          = 2025-12-01T13:40:15.461760
MEAN_MOTION    = 15.74308525
ECCENTRICITY   = .0001436
INCLINATION    = 53.1571
RA_OF_ASC_NODE = 330.3085
ARG_OF_PERICENTER = 103.7531
MEAN_ANOMALY   = 256.3648

EPHEMERIS_TYPE = 0
CLASSIFICATION_TYPE = U
NORAD_CAT_ID   = 66373
ELEMENT_SET_NO = 999
REV_AT_EPOCH   = 392
BSTAR          = .18224E-2
MEAN_MOTION_DOT = .27664E-2
MEAN_MOTION_DDOT = 0

CCSDS_OMM_VERS = 2.0
CREATION_DATE  = 
ORIGINATOR     = 

OBJECT_NAME    = STARLINK-35831
OBJECT_ID      = 2025-254AC
CENTER_NAME    = EARTH
REF_FRAME      = TEME
TIME_SYSTEM    = UTC
MEAN_ELEMENT_THEORY = SGP/SGP4

EPOCH          = 2025-12-01T16:42:37.535328
MEAN_MOTION    = 15.74228022
ECCENTRICITY   = .000169
INCLINATION    = 53.1570
RA_OF_ASC_NODE = 329.6757
ARG_OF_PERICENTER = 76.9524
MEAN_ANOMALY   = 283.1685

EPHEMERIS_TYPE = 0
CLASSIFICATION_TYPE = U
NORAD_CAT_ID   = 66374
ELEMENT_SET_NO = 999
REV_AT_EPOCH   = 394
BSTAR          = .99838E-3
MEAN_MOTION_DOT = .148441E-2
MEAN_MOTION_DDOT = 0

CCSDS_OMM_VERS = 2.0
CREATION_DATE  = 
ORIGINATOR     = 

OBJECT_NAME    = STARLINK-35826
OBJECT_ID      = 2025-254AD
CENTER_NAME    = EARTH
REF_FRAME      = TEME
TIME_SYSTEM    = UTC
MEAN_ELEMENT_THEORY = SGP/SGP4

EPOCH          = 2025-12-01T16:42:08.942112
MEAN_MOTION    = 15.74266270
ECCENTRICITY   = .0003156
INCLINATION    = 53.1569
RA_OF_ASC_NODE = 329.6740
ARG_OF_PERICENTER = 90.1085
MEAN_ANOMALY   = 270.0297

EPHEMERIS_TYPE = 0
CLASSIFICATION_TYPE = U
NORAD_CAT_ID   = 66375
ELEMENT_SET_NO = 999
REV_AT_EPOCH   = 394
BSTAR          = .19874E-2
MEAN_MOTION_DOT = .302136E-2
MEAN_MOTION_DDOT = 0

CCSDS_OMM_VERS = 2.0
CREATION_DATE  = 
ORIGINATOR     = 

OBJECT_NAME    = SHIYAN-32 01
OBJECT_ID      = 2025-255A
CENTER_NAME    = EARTH
REF_FRAME      = TEME
TIME_SYSTEM    = UTC
MEAN_ELEMENT_THEORY = SGP/SGP4

EPOCH          = 2025-12-01T19:16:53.554368
MEAN_MOTION    = 15.42196322
ECCENTRICITY   = .0013339
INCLINATION    = 52.9964
RA_OF_ASC_NODE = 230.0494
ARG_OF_PERICENTER = 8.3763
MEAN_ANOMALY   = 351.7461

EPHEMERIS_TYPE = 0
CLASSIFICATION_TYPE = U
NORAD_CAT_ID   = 66376
ELEMENT_SET_NO = 999
REV_AT_EPOCH   = 366
BSTAR          = .47189E-3
MEAN_MOTION_DOT = .2026E-3
MEAN_MOTION_DDOT = 0

CCSDS_OMM_VERS = 2.0
CREATION_DATE  = 
ORIGINATOR     = 

OBJECT_NAME    = CZ-11 DEB
OBJECT_ID      = 2025-255B
CENTER_NAME    = EARTH
REF_FRAME      = TEME
TIME_SYSTEM    = UTC
MEAN_ELEMENT_THEORY = SGP/SGP4

EPOCH          = 2025-12-01T19:01:37.011936
MEAN_MOTION    = 15.43379892
ECCENTRICITY   = .0013895
INCLINATION    = 52.9964
RA_OF_ASC_NODE = 229.9824
ARG_OF_PERICENTER = 5.8586
MEAN_ANOMALY   = 354.2578

EPHEMERIS_TYPE = 0
CLASSIFICATION_TYPE = U
NORAD_CAT_ID   = 66377
ELEMENT_SET_NO = 999
REV_AT_EPOCH   = 352
BSTAR          = .85435E-3
MEAN_MOTION_DOT = .3864E-3
MEAN_MOTION_DDOT = 0

CCSDS_OMM_VERS = 2.0
CREATION_DATE  = 
ORIGINATOR     = 

OBJECT_NAME    = SHIYAN-32 02
OBJECT_ID      = 2025-255C
CENTER_NAME    = EARTH
REF_FRAME      = TEME
TIME_SYSTEM    = UTC
MEAN_ELEMENT_THEORY = SGP/SGP4

EPOCH          = 2025-12-01T18:55:04.196064
MEAN_MOTION    = 15.43870454
ECCENTRICITY   = .0012673
INCLINATION    = 52.9977
RA_OF_ASC_NODE = 229.9564
ARG_OF_PERICENTER = 7.3781
MEAN_ANOMALY   = 352.7408

EPHEMERIS_TYPE = 0
CLASSIFICATION_TYPE = U
NORAD_CAT_ID   = 66378
ELEMENT_SET_NO = 999
REV_AT_EPOCH   = 352
BSTAR          = .11673E-2
MEAN_MOTION_DOT = .53916E-3
MEAN_MOTION_DDOT = 0

CCSDS_OMM_VERS = 2.0
CREATION_DATE  = 
ORIGINATOR     = 

OBJECT_NAME    = SHIYAN-32 03
OBJECT_ID      = 2025-255D
CENTER_NAME    = EARTH
REF_FRAME      = TEME
TIME_SYSTEM    = UTC
MEAN_ELEMENT_THEORY = SGP/SGP4

EPOCH          = 2025-12-01T20:42:32.296320
MEAN_MOTION    = 15.42556992
ECCENTRICITY   = .0015352
INCLINATION    = 52.9971
RA_OF_ASC_NODE = 229.7092
ARG_OF_PERICENTER = 9.4603
MEAN_ANOMALY   = 350.6687

EPHEMERIS_TYPE = 0
CLASSIFICATION_TYPE = U
NORAD_CAT_ID   = 66379
ELEMENT_SET_NO = 999
REV_AT_EPOCH   = 355
BSTAR          = .47274E-3
MEAN_MOTION_DOT = .20569E-3
MEAN_MOTION_DDOT = 0

CCSDS_OMM_VERS = 2.0
CREATION_DATE  = 
ORIGINATOR     = 

OBJECT_NAME    = STARLINK-35139
OBJECT_ID      = 2025-257A
CENTER_NAME    = EARTH
REF_FRAME      = TEME
TIME_SYSTEM    = UTC
MEAN_ELEMENT_THEORY = SGP/SGP4

EPOCH          = 2025-12-01T20:00:01.999008
MEAN_MOTION    = 15.41806575
ECCENTRICITY   = .0001252
INCLINATION    = 53.1595
RA_OF_ASC_NODE = 316.0475
ARG_OF_PERICENTER = 110.3393
MEAN_ANOMALY   = 45.5396

EPHEMERIS_TYPE = 0
CLASSIFICATION_TYPE = U
NORAD_CAT_ID   = 66380
ELEMENT_SET_NO = 999
REV_AT_EPOCH   = 468
BSTAR          = -.56799E-1
MEAN_MOTION_DOT = -.21946E-1
MEAN_MOTION_DDOT = 0

CCSDS_OMM_VERS = 2.0
CREATION_DATE  = 
ORIGINATOR     = 

OBJECT_NAME    = STARLINK-35158
OBJECT_ID      = 2025-257B
CENTER_NAME    = EARTH
REF_FRAME      = TEME
TIME_SYSTEM    = UTC
MEAN_ELEMENT_THEORY = SGP/SGP4

EPOCH          = 2025-12-01T20:00:01.999008
MEAN_MOTION    = 15.41788212
ECCENTRICITY   = .0001411
INCLINATION    = 53.1592
RA_OF_ASC_NODE = 316.0438
ARG_OF_PERICENTER = 109.6717
MEAN_ANOMALY   = 48.0597

EPHEMERIS_TYPE = 0
CLASSIFICATION_TYPE = U
NORAD_CAT_ID   = 66381
ELEMENT_SET_NO = 999
REV_AT_EPOCH   = 474
BSTAR          = -.56567E-1
MEAN_MOTION_DOT = -.2147155E-1
MEAN_MOTION_DDOT = 0

CCSDS_OMM_VERS = 2.0
CREATION_DATE  = 
ORIGINATOR     = 

OBJECT_NAME    = STARLINK-35639
OBJECT_ID      = 2025-257C
CENTER_NAME    = EARTH
REF_FRAME      = TEME
TIME_SYSTEM    = UTC
MEAN_ELEMENT_THEORY = SGP/SGP4

EPOCH          = 2025-12-01T20:00:01.999008
MEAN_MOTION    = 15.44563818
ECCENTRICITY   = .0001318
INCLINATION    = 53.1589
RA_OF_ASC_NODE = 316.0102
ARG_OF_PERICENTER = 85.2304
MEAN_ANOMALY   = 88.4329

EPHEMERIS_TYPE = 0
CLASSIFICATION_TYPE = U
NORAD_CAT_ID   = 66382
ELEMENT_SET_NO = 999
REV_AT_EPOCH   = 474
BSTAR          = -.4819E-1
MEAN_MOTION_DOT = -.202542E-1
MEAN_MOTION_DDOT = 0

CCSDS_OMM_VERS = 2.0
CREATION_DATE  = 
ORIGINATOR     = 

OBJECT_NAME    = STARLINK-35690
OBJECT_ID      = 2025-257D
CENTER_NAME    = EARTH
REF_FRAME      = TEME
TIME_SYSTEM    = UTC
MEAN_ELEMENT_THEORY = SGP/SGP4

EPOCH          = 2025-12-01T20:00:01.999008
MEAN_MOTION    = 15.47394492
ECCENTRICITY   = .0001539
INCLINATION    = 53.1588
RA_OF_ASC_NODE = 315.9872
ARG_OF_PERICENTER = 89.6422
MEAN_ANOMALY   = 95.3780

EPHEMERIS_TYPE = 0
CLASSIFICATION_TYPE = U
NORAD_CAT_ID   = 66383
ELEMENT_SET_NO = 999
REV_AT_EPOCH   = 474
BSTAR          = -.44026E-1
MEAN_MOTION_DOT = -.2039743E-1
MEAN_MOTION_DDOT = 0

CCSDS_OMM_VERS = 2.0
CREATION_DATE  = 
ORIGINATOR     = 

OBJECT_NAME    = STARLINK-35662
OBJECT_ID      = 2025-257E
CENTER_NAME    = EARTH
REF_FRAME      = TEME
TIME_SYSTEM    = UTC
MEAN_ELEMENT_THEORY = SGP/SGP4

EPOCH          = 2025-12-01T20:00:01.999008
MEAN_MOTION    = 15.47386922
ECCENTRICITY   = .0001612
INCLINATION    = 53.1589
RA_OF_ASC_NODE = 315.9844
ARG_OF_PERICENTER = 82.4326
MEAN_ANOMALY   = 104.4820

EPHEMERIS_TYPE = 0
CLASSIFICATION_TYPE = U
NORAD_CAT_ID   = 66384
ELEMENT_SET_NO = 999
REV_AT_EPOCH   = 474
BSTAR          = -.44066E-1
MEAN_MOTION_DOT = -.2040975E-1
MEAN_MOTION_DDOT = 0

